NORAD_CAT_ID,OBJECT_NAME,OBJECT_TYPE,EPOCH,MEAN_MOTION,ECCENTRICITY,INCLINATION,RA_OF_ASC_NODE,ARG_OF_PERICENTER,MEAN_ANOMALY,BSTAR,MEAN_MOTION_DOT,MEAN_MOTION_DDOT,TLE_LINE0,TLE_LINE1,TLE_LINE2,SEMIMAJOR_AXIS,PERIOD,APOGEE,PERIGEE,DECAYED
53727.0,STARLINK-4701,PAYLOAD,2024-06-30 14:19:30,15.0883746,0.0001262,53.2155,144.3516,91.206,268.9077,3.134e-05,2.11e-06,0.0,0 STARLINK-4701,1 53727U 22107AD  24182.59688318  .00000211  00000-0  31340-4 0  9990,2 53727  53.2155 144.3516 0001262  91.2060 268.9077 15.08837460101395,6917.888,95.438,540.626,538.88,0.0
53727.0,STARLINK-4701,PAYLOAD,2024-07-01 04:37:58,15.08848313,0.0001249,53.2158,141.6761,51.5406,308.5698,9.8739e-05,1.284e-05,0.0,0 STARLINK-4701,1 53727U 22107AD  24183.19303686  .00001284  00000-0  98739-4 0  9995,2 53727  53.2158 141.6761 0001249  51.5406 308.5698 15.08848313100880,6917.855,95.437,540.584,538.856,0.0
53727.0,STARLINK-4701,PAYLOAD,2024-07-01 14:10:17,15.08843603,0.0001344,53.2166,139.8924,95.8749,264.2396,8.3435e-05,1.04e-05,0.0,0 STARLINK-4701,1 53727U 22107AD  24183.59047819  .00001040  00000-0  83435-4 0  9999,2 53727  53.2166 139.8924 0001344  95.8749 264.2396 15.08843603101540,6917.869,95.437,540.664,538.805,0.0
53727.0,STARLINK-4701,PAYLOAD,2024-07-02 04:28:46,15.08834189,0.0001404,53.2162,137.2149,88.2115,271.9038,0.000103,1.351e-05,0.0,0 STARLINK-4701,1 53727U 22107AD  24184.18664748  .00001351  00000-0  10300-3 0  9996,2 53727  53.2162 137.2149 0001404  88.2115 271.9038 15.08834189101038,6917.898,95.438,540.734,538.792,0.0
53727.0,STARLINK-4701,PAYLOAD,2024-07-02 14:01:05,15.08836787,0.0001257,53.2162,135.4303,88.1564,271.9572,4.6046e-05,4.45e-06,0.0,0 STARLINK-4701,1 53727U 22107AD  24184.58408741  .00000445  00000-0  46046-4 0  9999,2 53727  53.2162 135.4303 0001257  88.1564 271.9572 15.08836787101694,6917.89,95.438,540.625,538.886,0.0
53727.0,STARLINK-4701,PAYLOAD,2024-07-02 20:22:37,15.0883579,0.0001251,53.2152,134.2406,90.4407,269.6728,1.8831e-05,1.2e-07,0.0,0 STARLINK-4701,1 53727U 22107AD  24184.84904927  .00000012  00000-0  18831-4 0  9996,2 53727  53.2152 134.2406 0001251  90.4407 269.6728 15.08835790101735,6917.893,95.438,540.624,538.893,0.0
53727.0,STARLINK-4701,PAYLOAD,2024-07-03 05:54:56,15.08848348,0.0001279,53.2161,132.4573,89.769,270.3449,2.4202e-05,9.7e-07,0.0,0 STARLINK-4701,1 53727U 22107AD  24185.24648184  .00000097  00000-0  24202-4 0  9993,2 53727  53.2161 132.4573 0001279  89.7690 270.3449 15.08848348101197,6917.855,95.437,540.605,538.835,0.0
53727.0,STARLINK-4701,PAYLOAD,2024-07-03 13:51:51,15.08845433,0.0001234,53.2165,130.9696,89.1215,270.9918,-2.3046e-05,-6.55e-06,0.0,0 STARLINK-4701,1 53727U 22107AD  24185.57768306 -.00000655  00000-0 -23046-4 0  9995,2 53727  53.2165 130.9696 0001234  89.1215 270.9918 15.08845433101849,6917.864,95.437,540.582,538.875,0.0
53727.0,STARLINK-4701,PAYLOAD,2024-07-04 02:34:56,15.08843593,0.0001272,53.2158,128.5897,104.6044,255.5089,3.3292e-05,2.42e-06,0.0,0 STARLINK-4701,1 53727U 22107AD  24186.10760302  .00000242  00000-0  33292-4 0  9997,2 53727  53.2158 128.5897 0001272 104.6044 255.5089 15.08843593101328,6917.869,95.437,540.614,538.854,0.0
53727.0,STARLINK-4701,PAYLOAD,2024-07-04 13:42:38,15.08844483,0.0001253,53.2155,126.5092,99.5292,260.5841,4.5533e-05,4.37e-06,0.0,0 STARLINK-4701,1 53727U 22107AD  24186.57128107  .00000437  00000-0  45533-4 0  9996,2 53727  53.2155 126.5092 0001253  99.5292 260.5841 15.08844483101990,6917.867,95.437,540.598,538.865,0.0
53727.0,STARLINK-4701,PAYLOAD,2024-07-04 23:14:57,15.08839968,0.0001304,53.2152,124.7265,88.7415,271.3726,9.0058e-05,1.146e-05,0.0,0 STARLINK-4701,1 53727U 22107AD  24186.96872393  .00001146  00000-0  90058-4 0  9992,2 53727  53.2152 124.7265 0001304  88.7415 271.3726 15.08839968102055,6917.88,95.438,540.648,538.843,0.0
53727.0,STARLINK-4701,PAYLOAD,2024-07-05 02:25:43,15.088456,0.000138,53.216,124.1314,94.4969,265.618,9.8697e-05,1.283e-05,0.0,0 STARLINK-4701,1 53727U 22107AD  24187.10119994  .00001283  00000-0  98697-4 0  9999,2 53727  53.2160 124.1314 0001380  94.4969 265.6180 15.08845600102077,6917.863,95.437,540.683,538.774,0.0
53727.0,STARLINK-4701,PAYLOAD,2024-07-06 02:16:30,15.08841334,0.0001566,53.217,119.6675,100.7949,259.3219,2.9625e-05,1.84e-06,0.0,0 STARLINK-4701,1 53727U 22107AD  24188.09480321  .00000184  00000-0  29625-4 0  9997,2 53727  53.2170 119.6675 0001566 100.7949 259.3219 15.08841334101625,6917.876,95.437,540.825,538.658,0.0
53727.0,STARLINK-4701,PAYLOAD,2024-07-06 05:27:17,15.08840936,0.0001531,53.2174,119.0726,99.7605,260.356,-6.6428e-06,-3.94e-06,0.0,0 STARLINK-4701,1 53727U 22107AD  24188.22728472 -.00000394  00000-0 -66428-5 0  9992,2 53727  53.2174 119.0726 0001531  99.7605 260.3560 15.08840936102245,6917.878,95.437,540.802,538.683,0.0
53727.0,STARLINK-4701,PAYLOAD,2024-07-07 02:07:18,15.08839501,0.0001317,53.2157,115.2085,84.5932,275.5211,-3.0005e-05,-7.65e-06,0.0,0 STARLINK-4701,1 53727U 22107AD  24189.08840740 -.00000765  00000-0 -30005-4 0  9993,2 53727  53.2157 115.2085 0001317  84.5932 275.5211 15.08839501101773,6917.882,95.438,540.658,538.836,0.0
53727.0,STARLINK-4701,PAYLOAD,2024-07-07 05:18:04,15.08839971,0.0001373,53.2162,114.6149,87.7528,272.3622,-1.3536e-05,-5.03e-06,0.0,0 STARLINK-4701,1 53727U 22107AD  24189.22088695 -.00000503  00000-0 -13536-4 0  9992,2 53727  53.2162 114.6149 0001373  87.7528 272.3622 15.08839971102392,6917.88,95.438,540.695,538.796,0.0
53727.0,STARLINK-4701,PAYLOAD,2024-07-08 11:30:24,15.08839072,0.0001146,53.2157,108.9644,86.6774,273.4349,3.3886e-05,2.52e-06,0.0,0 STARLINK-4701,1 53727U 22107AD  24190.47944750  .00000252  00000-0  33886-4 0  9993,2 53727  53.2157 108.9644 0001146  86.6774 273.4349 15.08839072101985,6917.883,95.438,540.541,538.955,0.0
53727.0,STARLINK-4701,PAYLOAD,2024-07-09 03:24:15,15.08848554,0.0001452,53.2177,105.9918,85.5411,274.5747,9.0407e-05,1.151e-05,0.0,0 STARLINK-4701,1 53727U 22107AD  24191.14184243  .00001151  00000-0  90407-4 0  9992,2 53727  53.2177 105.9918 0001452  85.5411 274.5747 15.08848554102085,6917.854,95.437,540.724,538.715,0.0
53727.0,STARLINK-4701,PAYLOAD,2024-07-09 11:21:11,15.08834129,0.000159,53.216,104.5043,84.0135,276.1038,1.1596e-05,-1.03e-06,0.0,0 STARLINK-4701,1 53727U 22107AD  24191.47305473 -.00000103  00000-0  11596-4 0  9997,2 53727  53.2160 104.5043 0001590  84.0135 276.1038 15.08834129102131,6917.898,95.438,540.863,538.663,0.0
53727.0,STARLINK-4701,PAYLOAD,2024-07-09 22:28:54,15.08836029,0.0001673,53.2166,102.4248,86.9685,273.1498,-1.6547e-05,-5.51e-06,0.0,0 STARLINK-4701,1 53727U 22107AD  24191.93673670 -.00000551  00000-0 -16547-4 0  9994,2 53727  53.2166 102.4248 0001673  86.9685 273.1498 15.08836029102806,6917.893,95.438,540.915,538.6,0.0
53727.0,STARLINK-4701,PAYLOAD,2024-07-10 11:11:58,15.08840504,0.0001542,53.2183,100.0453,83.1039,277.0129,-2.4915e-05,-6.85e-06,0.0,0 STARLINK-4701,1 53727U 22107AD  24192.46665470 -.00000685  00000-0 -24915-4 0  9998,2 53727  53.2183 100.0453 0001542  83.1039 277.0129 15.08840504102889,6917.879,95.438,540.811,538.677,0.0
53727.0,STARLINK-4701,PAYLOAD,2024-07-10 17:33:31,15.08835965,0.0001206,53.2171,98.8556,90.1447,269.9683,5.7539e-05,6.28e-06,0.0,0 STARLINK-4701,1 53727U 22107AD  24192.73161469  .00000628  00000-0  57539-4 0  9990,2 53727  53.2171  98.8556 0001206  90.1447 269.9683 15.08835965102321,6917.893,95.438,540.592,538.923,0.0
53727.0,STARLINK-4701,PAYLOAD,2024-07-10 22:19:40,15.08841285,0.0001236,53.2166,97.9644,89.977,270.1364,8.0335e-05,9.91e-06,0.0,0 STARLINK-4701,1 53727U 22107AD  24192.93033074  .00000991  00000-0  80335-4 0  9995,2 53727  53.2166  97.9644 0001236  89.9770 270.1364 15.08841285102952,6917.876,95.437,540.597,538.886,0.0
53727.0,STARLINK-4701,PAYLOAD,2024-07-11 03:05:49,15.08855195,0.0001234,53.2166,97.0714,98.3968,261.7164,7.264e-05,8.69e-06,0.0,0 STARLINK-4701,1 53727U 22107AD  24193.12904174  .00000869  00000-0  72640-4 0  9999,2 53727  53.2166  97.0714 0001234  98.3968 261.7164 15.08855195102388,6917.834,95.437,540.553,538.845,0.0
53727.0,STARLINK-4701,PAYLOAD,2024-07-12 02:56:36,15.08847363,0.0001288,53.2164,92.6081,90.1221,269.9919,0.00011483,1.54e-05,0.0,0 STARLINK-4701,1 53727U 22107AD  24194.12264535  .00001540  00000-0  11483-3 0  9994,2 53727  53.2164  92.6081 0001288  90.1221 269.9919 15.08847363102538,6917.858,95.437,540.614,538.832,0.0
53727.0,STARLINK-4701,PAYLOAD,2024-07-12 10:53:32,15.08842297,0.0001424,53.2176,91.1187,101.7643,258.3509,4.7761e-05,4.72e-06,0.0,0 STARLINK-4701,1 53727U 22107AD  24194.45384928  .00000472  00000-0  47761-4 0  9991,2 53727  53.2176  91.1187 0001424 101.7643 258.3509 15.08842297102584,6917.873,95.437,540.723,538.753,0.0
53727.0,STARLINK-4701,PAYLOAD,2024-07-12 20:25:51,15.08830336,0.0001074,53.2175,89.3334,132.4813,227.627,0.00018153,2.602e-05,0.0,0 STARLINK-4701,1 53727U 22107AD  24194.85129254  .00002602  00000-0  18153-3 0  9993,2 53727  53.2175  89.3334 0001074 132.4813 227.6270 15.08830336102649,6917.91,95.438,540.518,539.032,0.0
53727.0,STARLINK-4701,PAYLOAD,2024-07-12 22:01:14,15.08833986,0.0001145,53.2174,89.0382,120.3756,239.7349,0.00015448,2.171e-05,0.0,0 STARLINK-4701,1 53727U 22107AD  24194.91753117  .00002171  00000-0  15448-3 0  9996,2 53727  53.2174  89.0382 0001145 120.3756 239.7349 15.08833986103252,6917.899,95.438,540.556,538.972,0.0
53727.0,STARLINK-4701,PAYLOAD,2024-07-12 23:36:37,15.08847059,0.0001412,53.2168,88.7427,107.6178,252.4968,-1.7058e-05,-5.59e-06,0.0,0 STARLINK-4701,1 53727U 22107AD  24194.98376822 -.00000559  00000-0 -17058-4 0  9997,2 53727  53.2168  88.7427 0001412 107.6178 252.4968 15.08847059102663,6917.859,95.437,540.701,538.747,0.0
53727.0,STARLINK-4701,PAYLOAD,2024-07-13 21:52:01,15.0884517,0.0001397,53.2176,84.5806,105.0237,255.091,-1.5192e-05,-5.3e-06,0.0,0 STARLINK-4701,1 53727U 22107AD  24195.91113014 -.00000530  00000-0 -15192-4 0  9999,2 53727  53.2176  84.5806 0001397 105.0237 255.0910 15.08845170103408,6917.865,95.437,540.696,538.763,0.0
